Name;Address;Phone;E-Mail;Web Site;Longitude;Latitude;SAP ID;ZNL_5000;ZNL_5410;ZNL_5413
A. Ploem & Zn. BV;Marconistraat 32 / 6372 PM LANDGRAAF / NL;+31 455676969;#;#;603.956.970.000.000;5.087.321.380.000.000;11028300;1;1;
A.J. Loots Installatiebedrijf;Avignonlaan 14 / 5627 GA EINDHOVEN / NL;+31 402430910;#;#;544.325.860.000.000;5.147.627.470.000.000;11031804;1;1;
Aangenaam Verwarming en;De Dijken 5c / 1747 EE TUITJENHORN / NL;+31 224551110;info@aangenaamverwarming.nl;www.aangenaamverwarming.nl;477.704.490.000.000;5.273.062.830.000.000;300052393;1;1;1
Air Quality Europe B.V.;De Reulver 26 / 7544 RT ENSCHEDE / NL;+31 532068760;#;www.aqebv.nl;688.947.650.000.000;5.219.574.060.000.000;11043130;1;1;1
Air System;Lentemorgen 5-2 / 6903 CT ZEVENAAR / NL;+31 (316) 849 077;#;www.air-system.nl;607.315.370.000.000;5.193.507.620.000.000;300056040;1;1;
Airhome Ventilatieservice BV;Drenthweg 19 / 9561 AZ TER APEL / NL;+31 850685030;info@airhome.nl;www.airhome.nl;705.593.970.000.000;5.288.763.780.000.000;10063057;1;1;1
Alferink B.V. Installatie-;Industrieweg 15 / 7141 DD GROENLO / NL;+31 544476200;info@alferink.nl;www.alferink.nl;662.654.520.000.000;5.204.067.530.000.000;10063214;1;1;1
Alpha Ventilatie;Maarssenbroeksedijk 4 / 3542 DN UTRECHT / NL;+31 303200120;info@alphaventilatie.nl;www.alphaventilatie.nl;504.430.570.000.000;5.212.448.360.000.000;11039146;1;1;1
Alpha Ventilatie B.V.;Strijkviertel 48B / 3454 PN De Meern / NL;+31 881238700;#;www.alphaventilatie.nl;505.924.000.000.000;5.207.980.000.000.000;11150556;1;1;1
Anbergen Totaal Techniek;Labora 18 / 7776 SC SLAGHAREN / NL;+31 (523) 68 37 13;Info@anbergentotaaltechniek.nl;www.anbergentotaaltechniek.nl;655.071.750.000.000;5.262.420.990.000.000;300042719;;1;
Aqualon van Zutphen Installatie-;Lange Voren 18 / 5521 DD EERSEL / NL;+31 497517092;#;http://www.ptsplumbing.co.uk/branch/286/aylesford-renewables;539.021.040.000.000;5.135.530.810.000.000;10063256;1;1;1
Arendsen Installatie Techniek;Nijverheidweg 2 / 7255 RA HENGELO GLD / NL;+31 575462511;richard@arensden-hengelo.nl;www.arendsen-hengelo.nl;631.181.850.000.000;5.204.255.710.000.000;11138407;1;1;1
Assen Installatietechniek bv;Meulenakker 8 / 7841 EP SLEEN / NL;+31 591390620;info@assentib.nl;www.assentib.nl;680.801.140.000.000;5.276.537.850.000.000;10063176;1;1;1
B&B Installatietechniek;Ploeg 56 / 5351 NV BERGHEM / NL;+31 412 402576;info@bb-installatietechniek.nl;#;557.626.730.000.000;5.176.824.540.000.000;300057793;1;1;
BJ-Lupron bv;Afrikastraat 18 / 6014 CG ITTERVOORT / NL;+31 495538255;#;https://www.bj-lupron.nl/;583.750.610.000.000;5.118.039.110.000.000;10063056;;1;
Bakker Klimaat;Zaadmarkt 9-11 / 1681 PD ZWAAGDYK / NL;+31 228712088;info@bakkerklimaat.nl;www.bakkerklimaat.nl;514.999.820.000.000;5.270.194.530.000.000;11136926;1;1;1
Bergman Installatiewerken;Molenhoekweg 9 / 7722 MD DALFSEN / NL;+31 529401010;info@bergmaninstallatiewerken.nl;www.bergmaninstallatiewerken.nl;620.017.150.000.000;5.248.199.730.000.000;11042101;1;1;1
Bernhezer Installatiebedrijf BV;Lindestraat 17 / 5388 HT NISTELRODE / NL;+31 413296190;#;https://bernhezerinstallatie.nl/;556.176.650.000.000;5.169.936.570.000.000;11136034;1;1;1
Besteman en Zn.;Reflectiestraat 35 / 2631 RV NOOTDORP / NL;+31 703834744;#;#;434.089.740.000.000;5.208.717.040.000.000;11137557;;1;
Bevico B.V.;Bijdorp-West 82 / 2992 LC BARENDRECHT / NL;+31 884009500;#;www.bevico.nl;452.101.690.000.000;5.186.255.180.000.000;10063344;1;1;1
Bijlstra Installaties BV;Hogedijken 22 / 9101 WV DOKKUM / NL;+31 519221790;info@bijlstra.nl;www.bijlstra-installaties.nl;601.106.630.000.000;5.332.215.070.000.000;300044135;1;1;1
Blankestijn Installaties BV;Kuipersweg 27 / 3449 JA WOERDEN / NL;+31 (348) 42 28 88;info@blankestijn.nl;www.blankestijn.nl;486.390.820.000.000;5.208.420.130.000.000;300042757;1;1;
Boer en Van Veen BV;Ambachtstraat 25A / 8263 AJ KAMPEN / NL;+31 383312800;info@boerenvanveen.nl;www.boerenvanveen.nl;588.873.400.000.000;5.256.097.100.000.000;10063274;1;1;1
Boerboom Loodgietersbedrijf;Fahrenheitstraat 3 / 6902 PX ZEVENAAR / NL;+31 316523532;info@boerboomzevenaar.nl;www.boerboomloodgieter.nl;609.772.380.000.000;5.193.102.580.000.000;300046275;1;1;1
Bokhorst Installatietechniek B.V.;Benedenrijweg 162 / 2987 VB RIDDERKERK / NL;+31 180 200010;#;www.bokhorst.com;458.526.100.000.000;5.189.426.180.000.000;300046450;1;1;1
Bonarius Midden-Nederland;Otto Hahnweg 26 / 3542 AX UTRECHT / NL;+31 (35) 751 86 00;utrecht@bonarius.com;www.bonarius.com;505.542.000.000.000;5.211.705.000.000.000;300052916;1;1;1
Bonarius Oost-Nederland;Hondiusstraat 24F / 6827 DE ARNHEM / NL;+31 (26) 204 00 40;arnhem@bonarius.com;www.bonarius.com;592.820.000.000.000;5.197.451.000.000.000;300052871;1;1;1
Bonarius Service B.V.;Zwanenburgerdijk 291 / 1161 NL ZWANENBURG / NL;+31 204074900;info@bonarius.com;www.bonarius.com;473.211.750.000.000;5.238.584.660.000.000;10063341;1;1;1
Bonarius Zuid-Holland;Moezel 13-15 / 2491 CV DEN HAAG / NL;+31 (70) 750 63 00;denhaag@bonarius.com;www.bonarius.com;450.731.670.000.000;5.203.526.620.000.000;300042243;1;1;1
Bongers van Dieten Installatie-;Zeelandsedreef 20 / 5374 RR Schaijk / NL;#;info@bongersvandieteninstallaties.nl;#;564.741.000.000.000;5.172.418.000.000.000;300078930;1;1;
Boogaard Duurzame Energie;Sud 14 / 8711 CV WORKUM / NL;+31 515542770;info@boogaardinstallatie.nl;www.boogaardinstallatie.nl;544.169.760.000.000;5.297.866.120.000.000;11137417;1;1;1
Boonstra;Seedûker 7 / 9051 VB STIENS / NL;+31 (58) 257 46 89;info@boonstra-installaties.nl;www.boonstra-installaties.nl;575.068.690.000.000;5.326.762.570.000.000;300049191;1;1;1
Bosman Installatietechniek;Van Goghstraat 7 / 7844 NP VEENOORD / NL;+31 (591) 55 15 93;info@bosmaninstallatietechniek.nl;www.bosmaninstallatietechniek.nl;684.873.490.000.000;5.271.619.710.000.000;300049438;1;1;1
Breman Service Weert B.V.;Industriekade 45 / 6006 SJ WEERT / NL;+31 495583283;#;#;567.695.260.000.000;5.124.767.990.000.000;10063477;1;;1
CLB;Bloemkwekersstraat 72-78 / 3014 PE ROTTERDAM / NL;+31 10-4360783;info@clbrotterdam.nl;www.clbrotterdam.nl;446.860.480.000.000;5.191.678.650.000.000;300053055;1;1;
CVI Texel B.V.;Spinbaan 8 / 1791 MC DEN BURG / NL;+31 222313703;info@cvi-texel.nl;www.cvi-texel.nl;479.918.560.000.000;5.306.107.910.000.000;10063036;1;1;1
Carool Installatiebedrijf;Elsbosweg 39 / 7381 BH KLARENBEEK / NL;+31 555429806;info@carooliinstallatiebedrijf.nl;www.caroolinstallatiebedrijf.nl;605.453.790.000.000;5.216.985.780.000.000;11038984;1;1;1
Centragas van Galen B.V.;Mollerusweg 2-6 / 2031 BZ HAARLEM / NL;+31 235513838;#;#;466.226.570.000.000;5.239.246.810.000.000;11030372;1;1;1
Cevesin Klimaattechniek B.V.;Industrielaan 14 / 6951 KG DIEREN / NL;+31 313428333;info@cevesin.nl;www.cevesin.nl;610.213.740.000.000;5.205.789.040.000.000;11025803;;1;
ComfortServices;Afrikastraat 22 / 6014 CG ITTERVOORT / NL;+31 475-567666;#;www.interduct.nl/bedrijf/comfortservices;583.606.470.000.000;5.118.029.910.000.000;11006601;1;1;1
DHG Nederland BV;Hofdwarsweg 17-21 / 6161 DE GELEEN / NL;+31 (46) 474 28 06;info@dhgnederland.nl;www.dhgnederland.nl;581.830.690.000.000;5.096.072.980.000.000;300046232;1;;1
Daan Installatietechniek;Molenwerf 8k / 1911 DB UITGEEST / NL;+31 620321444;info@daaninstallatietechniek.nl;www.daaninstallatietechniek.nl;471.927.400.000.000;5.253.043.790.000.000;300053220;1;1;1
De Bruijn Installatiewerken;Kraaihei 40 / 4715 RV RUCPHEN / NL;+31 165820981;#;#;458.038.300.000.000;5.153.680.000.000.000;11138227;;1;
De Elementen B.V.;Veemarkt 132 / 1019 DE AMSTERDAM / NL;+31 208204242;info@deelementen.nl;www.deelementen.nl;493.874.600.000.000;5.236.840.260.000.000;11044059;1;1;1
De Graaf Installaties B.V.;Energieweg 2 / 3751 LT BUNSCHOTEN-SPAKENBUG / NL;+31 332982088;info@degraafinstallaties.nl;www.degraafinstallaties.nl/;537.821.700.000.000;5.223.183.100.000.000;11029454;1;1;1
De Kempen Installaties;Schutsboom 36 / 5571 MS BERGEYK / NL;+31 (497) 78 02 27;#;www.dekempeninstallaties.nl;537.513.530.000.000;5.132.451.690.000.000;300054623;1;1;
De Leeuw Installaties BV;Noordermorssingel 13 / 7461 JP RYSSEN / NL;+31 548540400;info@deleeuwinstallaties.nl;www.deleeuwinstallaties.nl;651.373.580.000.000;5.232.069.940.000.000;10063255;1;1;1
De Vreeden Installatietechniek B.V.;Xenonweg 5 / 3812 SZ AMERSFOORT / NL;+31 334700300;#;#;535.179.250.000.000;5.216.537.920.000.000;11039994;1;1;1
De ventilatiemeester;Weth. Timmermanstraat 7a / 7951 SH STAPHORST / NL;+31 522 465302;info@deventilatiemeester.nl;www.deventilatiemeester.nl;621.191.460.000.000;5.263.309.790.000.000;300048593;1;1;1
Derks-Diepenbroek B.V.;Rietdekkersweg 6 / 3449 JC WOERDEN / NL;+31 348 41 19 02;#;www.derks-diepenbroek.nl;485.620.680.000.000;5.208.525.450.000.000;300043522;1;1;1
Dibo Installatie Techniek;Schipperslaan 4 / 1906 BG LIMMEN / NL;+31 725052724;info@dibolimmen.nl;www.dibolimmen.nl;469.490.850.000.000;5.257.867.150.000.000;10063158;1;1;1
Donker Veenstra;De Giek 16 / 9206 AT DRACHTEN / NL;+31 850711848-07 11 848;info@donkerveenstra.nl;www.donkerveenstra.nl;607.500.680.000.000;5.311.453.730.000.000;300044645;1;1;1
Dries-Rolde;Gieterstraat 51 / 9451 TE ROLDE / NL;+31 (592) 24 21 54;info@driesrolde.nl;www.driesrolde.nl;665.650.620.000.000;5.298.831.560.000.000;300044124;1;1;1
ELV Installatietechniek;Pater Vervoortstraat 37 / 5465 RT VEGHEL / NL;+31 41 330 03 42-330 03 42;#;#;554.562.620.000.000;5.159.368.130.000.000;300050213;1;1;1
Elite Ventilatie;Marconieweg 2 a/b / 4131 PD VIANEN UT / NL;+31 347326206;#;www.elite-ventilatie.nl;509.248.470.000.000;5.197.618.960.000.000;300045598;1;;1
Eltag Electric B.V.;Pompmolenlaan 27 / 3447 GK WOERDEN / NL;+31 348415814;#;#;488.926.730.000.000;5.207.481.070.000.000;10063101;1;1;1
Energie Service Friesland BV;De Werf 1 / 8447 GD Heerenveen / NL;+31 513611300;#;www.energieservice.nl;589.748.340.000.000;5.297.096.950.000.000;11041603;1;1;1
Eska Onderhoudstechniek B.V.;Stockholm 15 / 2993 LM BARENDRECHT / NL;+31 884009750;#;www.eskaventilatieonderhoud.nl;451.022.050.000.000;5.185.036.380.000.000;300043705;1;1;1
Fris! Ventilatietechniek;Maarsseveensevaart 88 / 3601 CG MAARSSEN / NL;+31 346570114;info@frisventilatie.nl;www.frisventilatie.nl;505.832.750.000.000;5.214.407.860.000.000;11041260;1;1;1
G. Metselaar BV;Weg en Bos 33 d / 2661 DL BERGSCHENHOEK / NL;+31 10 22 20 02;#;www.gerardmetselaar.nl;450.614.990.000.000;5.198.047.200.000.000;300050827;1;1;1
Gebr. Beije BV;Wilgenstraat 3 / 4307 DA OOSTERLAND / NL;+31 111 64 15 09;#;#;403.392.160.000.000;5.165.357.200.000.000;11139037;;1;
Gebr. Janssen B.V.;Hagelkruisstraat 6 / 5835 BD BEUGEN / NL;+31 485369696;#;#;594.149.110.000.000;5.167.327.600.000.000;10063333;1;1;
Gebr. Kok B.V.;Zuiderwijzend 2 / 1616 LH HOOGKARSPEL / NL;+31 228561201;#;www.gebrkok.nl;518.837.190.000.000;5.268.876.230.000.000;300057372;1;1;1
Gerrits Techniek & Advies;Verlengde gildenweg 11 / 8304 BK EMMELOORD / NL;+31 6-16712252;info@gerritstechniekenadvies.nl;www.gerritstechniekenadvies.nl;574.750.100.000.000;5.268.807.430.000.000;300048461;1;1;1
Gerritsen Installatiebedrijf;Veldhoek 17 / 6741 MP LUNTEREN / NL;+31 342415155;info@gerritseninstallatietechniek.nl;www.gerritseninstallatietechniek.nl;557.710.460.000.000;5.210.806.550.000.000;11034059;;1;
Gerritsjans Installatiebedrijf;De Dinkel 3 / 7491 MK DELDEN / NL;+31 (74) 3767176;info@gerritsjansinstallatiebedrijf.nl;www.gerritsjansinstallatiebedrijf.nl;670.199.920.000.000;5.225.370.130.000.000;300048458;;1;
Gevers Installatiebureau BV;De Ketting 10 / 5261 LJ VUGHT / NL;+31 736562971;#;https://www.gevers-vught.nl/;529.487.260.000.000;5.164.224.180.000.000;11043345;1;1;
Giesen Installatie;Rijksweg 11B / 5854 AR BERGEN / NL;+31 485348050;#;#;604.980.990.000.000;5.160.145.460.000.000;11136799;1;1;1
Gunst Warmtetechniek;Margaretha van Hennebergweg 61B / 2552 BD S GRAVENHAGE / NL;+31 703099726;#;#;424.005.460.000.000;5.204.649.390.000.000;11029350;1;;
H. de Bont B.V.;Maidstone 44 / 5026 SK TILBURG / NL;+31 135356135;#;#;504.915.940.000.000;5.153.044.270.000.000;10063069;1;1;1
HM Installaties B.V.;Minkmaatstraat 112 / 7514 EG ENSCHEDE / NL;+31 534778383;info@hminstallaties.nl;www.hminstallaties.nl;690.349.160.000.000;5.222.768.380.000.000;11135844;1;1;1
Harwig Installatiegroep bv;Atlantis 3 / 7821 AX EMMEN / NL;+31 (591) 65 67 69;info@harwig.nl;www.harwig.nl;691.522.870.000.000;5.277.631.090.000.000;300042944;1;1;1
Heating Service B.V.;Weijland 70 / 2415 BD NIEUWERBRUG / NL;+31 348688777;#;#;481.264.690.000.000;5.207.912.690.000.000;10063484;1;1;
Heesmans Installatie Techniek;Brandevoortse Dreef 101 / 5706 SL HELMOND / NL;+31 492661352;#;#;562.791.280.000.000;5.145.473.240.000.000;11031867;1;1;1
Hemmes Installatietechniek;Monierweg 5A / 7741 KV COEVORDEN / NL;+31 524512640;info@hemmes.nl;www.hemmes.nl;673.046.090.000.000;5.265.672.420.000.000;11044384;1;1;1
Hendriksen installateert &;Koningsweg 217A / 7102 DT Winterswijk / NL;+31 543-513314;info@hendriksenbv.nl;www.hendriksenbv.nl;671.455.000.000.000;5.196.420.000.000.000;11140823;1;1;1
;Vulcaanstraat 4 / 7061 AX TERBORG / NL;#;info@hendriksenbv.nl;www.hendriksenbv.nl;635.428.550.000.000;5.191.974.860.000.000;11138486;1;1;1
Hi-Tech Services van Egdom;Lunterseweg 90 / 6718 WH EDE GLD / NL;+31 318482444;info@hitech-vanegdom.nl;www.hitech-vanegdom.nl;563.415.710.000.000;5.207.082.140.000.000;300044329;;1;
Hol Installatietechniek;Veenweideweg 9 / 2957 LD NIEUW LEKKERLAND / NL;+31 184683300;#;www.holbv.nl;469.541.140.000.000;5.188.783.400.000.000;11029558;1;1;1
Hoppenbrouwers Techniek Almelo;Bleskolksingel 5 / 7602 PE ALMELO / NL;+31 546488888;almelo@hoppenbrouwers.nl;www.hoppenbrouwerstechniek.nl;665.164.700.000.000;5.237.377.840.000.000;11029386;1;1;1
HulstFlier Installateurs;Gasthuisdijk 13 / 8041 AE ZWOLLE / NL;+31 384211031;zwolle@hulstflier.nl;www.hulstflier.nl;607.179.170.000.000;5.251.826.430.000.000;11135409;1;1;1
;Robbertsmatenstraat 15 / 8081 HL ELBURG / NL;+31 525681210;info@hulstflier.nl;www.hulstflier.nl;583.456.100.000.000;5.245.563.030.000.000;10063291;1;1;1
ID-Light Installatietechniek;Koolmand 9 / 1724 BC OUDKARSPEL / NL;+31 (226) 320 500;info@idlight.nl;#;478.551.680.000.000;5.270.363.020.000.000;300051664;1;1;1
IMP Putten;Industrieweg 12-7 / 3881 LB PUTTEN / NL;+31 (341) 745 263;info@impputten.nl;www.impputten.nl;558.285.230.000.000;5.226.745.410.000.000;300052218;1;1;1
ITBB Service en Onderhoud;It Dok 19 / 8447 GL HEERENVEEN / NL;+31 513650088;info@itbb.nl;www.itbb.nl;589.301.440.000.000;5.297.293.950.000.000;300043788;1;1;1
Igrotech Installatietechniek B.V.;It Butlan 21 / 8621 DV HEEG / NL;+31 6-29592431;info@igrotech.nl;www.igrotech.nl;561.980.850.000.000;5.297.059.070.000.000;300052099;1;1;1
Inst bedrijf Koen van Kilsdonk;Steegeindstraat 2a / 5396 NN LITHOIJEN / NL;+31 6-53630886;#;#;546.304.970.000.000;5.179.841.610.000.000;300043545;1;1;1
Installatie Techniek;Boeierstraat 7 / 8102 HS RAALTE / NL;+31 572353225;info@installatietechniekraalte.nl;www.www.installatietechniekraalte.nl;629.234.830.000.000;5.237.914.130.000.000;10063492;1;1;1
Installatie Techniek Fryslan;Jacob van Tuinenstrjitte 14 / 9041 CL BERLIKUM / NL;+31 6-27082022;info@installatietechniekfryslan.nl;www.installatietechniekfryslan.nl;566.611.930.000.000;5.321.521.670.000.000;300043783;1;1;1
Installatiebedrijf;Fahrenheitstraat 4 / 7461 JA RYSSEN / NL;+31 548514411;info@vandamgroep.com;/www.vandamgroep.com/particulier;652.432.180.000.000;5.231.600.590.000.000;10063372;1;1;1
;Hoofdstraat 127 / 3781 AD VOORTHUIZEN / NL;+31 (342) 47 21 38;info@installatiebedrijfsimon.nl;www.installatiebedrijfsimon.nl;560.191.870.000.000;5.218.504.120.000.000;300057865;1;1;1
Installatiebedrijf A. Tromp;Kerkweg 1 / 7361 BD BEEKBERGEN / NL;+31 555061583;post@tromp.nl;www.atromp.nl;596.135.150.000.000;5.216.091.970.000.000;11134738;;1;
Installatiebedrijf Bevelander;Stevinweg 19 / 4691 SM THOLEN / NL;+31 166603155;#;#;409.106.300.000.000;5.154.605.650.000.000;11045296;1;1;1
Installatiebedrijf Bierings B.V.;De Buskes 12 / 5087 MA DIESSEN / NL;+31 134633110;#;https://www.abierings.nl/;517.097.730.000.000;5.147.931.830.000.000;300044707;1;1;1
Installatiebedrijf De Wijnbergen;Korte Veenteweg 8 / 8161 PC EPE / NL;+31 578662880;info@dewijnbergen.nl;www.dewijnbergen.nl;599.254.990.000.000;5.234.868.460.000.000;11041128;1;1;1
Installatiebedrijf Dick Sjabbens BV;Hoofdstraat 35 / 7981 AD DIEVER / NL;+31 521591994;info@dick-sjabbens.nl;www.dick-sjabbens.nl;631.602.280.000.000;5.285.667.000.000.000;11010961;1;1;1
Installatiebedrijf Floor B.V.;Industrieweg 23 / 4104 AP CULEMBORG / NL;+31 345571303;#;www.installatiebedrijf-floor.nl;521.690.520.000.000;5.194.121.370.000.000;11046219;1;1;1
Installatiebedrijf Heegstra;Hoofdstraat 8 / 9003 LH Warten / NL;+31 582551241;info@heegstra.nl;www.heegstra.nl;589.932.000.000.000;5.315.065.000.000.000;300070976;1;1;1
Installatiebedrijf Hoekstra;Mercurius 17 / 8448 GX HEERENVEEN / NL;+31 513631717;info@hoekstra-heerenveen.nl;www.hoekstra-heerenveen.nl;592.673.790.000.000;5.297.119.800.000.000;11136306;1;1;1
Installatiebedrijf Huisman BV;Produksjewei 1 / 8501 XD JOURE / NL;+31 513412572;info@huismaninstallatietechniek.nl;www.huismaninstallatietechniek.nl;581.707.340.000.000;5.296.481.690.000.000;11038710;1;1;1
Installatiebedrijf Jansen &;Kleine Veld 15 / 7751 BG DALEN / NL;+31 (524) 55 82 80;info@jansenmeppelink.nl;www.jansenmeppelink.nl;675.591.150.000.000;5.270.766.910.000.000;300042177;1;1;1
Installatiebedrijf John van Neer;St. Jorisstraat 31 / 6101 CA ECHT / NL;+31 475483391;#;http://www.johnvanneer.nl/;587.150.640.000.000;5.110.766.490.000.000;11039887;1;1;1
Installatiebedrijf Jules Otgens;Bakelsedijk 62 / 5701 HD HELMOND / NL;+31 492545741;info@julesotgens.nl;https://www.julesotgens.nl/;567.269.490.000.000;5.148.320.500.000.000;11046173;1;1;1
Installatiebedrijf Montec BV;Aarhusweg 4-14 / 9723 JJ GRONINGEN / NL;+31 505446800;info@montecbv.nl;www.montecbv.nl;661.966.670.000.000;5.321.092.410.000.000;11043552;1;1;1
Installatiebedrijf Otte BV;Edisonstraat 12 / 8606 JJ SNEEK / NL;+31 515413531;info@pranger-rosier.nl;www.otte-installaties.nl;568.905.010.000.000;5.301.889.260.000.000;300055186;1;1;1
Installatiebedrijf P. Bruijn;Flemingstraat 37 / 1704 SL HEERHUGOWAARD / NL;+31 725760730;info@pietbruijn.nl;www.pietbruijn.nl;482.959.270.000.000;5.269.506.360.000.000;11027571;1;1;1
Installatiebedrijf P. De Bonth bv;Vimmerik 2N / 5253 CB NIEUWKUYK / NL;+31 73-5114344;#;https://www.pdebonthbv.nl/;517.411.080.000.000;5.169.445.760.000.000;11026891;1;1;1
Installatiebedrijf Peter van Gaal;Wertsteeg 23 / 5258 TA BERLICUM / NL;#;#;#;541.066.970.000.000;5.168.234.360.000.000;11139728;1;1;1
Installatiebedrijf Ranzijn;Fluorietweg 19D / 1812 RR ALKMAAR / NL;+31 725158717;#;www.ranzijnalkmaar.nl;474.274.500.000.000;5.260.160.000.000.000;300046487;1;1;1
Installatiebedrijf Ron Burger;De Huisweid 13 / 1749 EL WARMENHUIZEN / NL;+31 226393747;ronburger@rbinstallatie.nl;www.rbinstallatie.nl;473.216.100.000.000;5.272.407.100.000.000;11138242;1;1;1
Installatiebedrijf Van Lieshout;De Amert 98 / 5462 GH VEGHEL / NL;+31 413344043;#;www.van-lieshout.nl;552.335.840.000.000;5.161.983.080.000.000;300050044;1;1;1
Installatiebedrijf Van Veldhuizen;Pascalweg 15 / 8071 SE NUNSPEET / NL;+31 341252221;info@veldhuizenenergie.nl;www.veldhuizenenergie.nl;576.531.050.000.000;5.237.457.000.000.000;11135203;1;1;1
Installatiebedrijf Van der Pas;Groenendal 17 / 5405 AS UDEN / NL;+31 (413) 31 05 71;info@installatiebedrijfvanderpas.nl;www.installatiebedrijfvanderpas.nl;564.216.490.000.000;5.164.892.600.000.000;300055653;1;1;
Installatiebedrijf Verspeek;Dorpsstraat 96 / 5556 VL VALKENSWAARD / NL;+31 402068910-2068910;#;www.installatiebedrijfverspeek.nl;545.318.170.000.000;5.129.654.950.000.000;300052295;1;1;
Installatiebedrijf Visser;Noorderweg 185A / 1676 GM TWISK / NL;+31 227-541596;#;www.installatiebedrijfvisser.nl;506.699.200.000.000;5.274.762.260.000.000;11035489;1;1;1
Installatiebedrijf Welin B.V.;Groot Overeem 9A 16 / 9327 GH RENSWOUDE / NL;+31 343480119;info@welin.nl;www.welin.nl;551.297.100.000.000;5.205.565.270.000.000;11040963;1;1;1
Installatiebureau Kon;Sluisweg 2C / 3371 EV HARDINXVELD GIESSENDAM / NL;+31 184633850;#;#;485.498.520.000.000;5.182.184.770.000.000;11031886;1;1;1
Installatieburo Woudhuizen BV;Elburgerweg 60 / 7345 EE WENUM WIESEL / NL;+31 553121760;info@woudhuizenbv.nl;www.woudhuizenbv.nl;593.374.250.000.000;5.227.166.630.000.000;11043858;1;1;1
Installatietechniek Drachten BV;Helmhout 45 / 9206 AZ DRACHTEN / NL;+31 512 541030;info@itdbv.nl;www.itdbv.nl;607.259.440.000.000;5.311.901.460.000.000;300043792;1;1;1
Installatietechniek Driessen Oss;Etruskenweg 24 / 5349 AZ OSS / NL;+31 412-650991;#;#;555.820.830.000.000;5.176.438.450.000.000;300044125;1;1;
Installatietechniek Hartog B.V.;Wolfskuilseweg 267 / 6542 AA NIJMEGEN / NL;+31 (24) 377 15 92;info@hartogbv.nl;www.hartogbv.nl;582.736.060.000.000;5.184.332.070.000.000;300043710;1;1;1
Installatietechniek Van Eersel B.V.;Ommelseweg 57 / 5721 WT ASTEN / NL;+31 493696455;#;#;574.786.140.000.000;5.141.425.370.000.000;11035675;1;1;
J. Woldhuis B.V.;Voorburggracht 208 / 1722 GV ZUID SCHARWOUDE / NL;+31 226317374;info@woldhuis.nl;www.totaal-installatie.nl;480.824.840.000.000;5.269.456.070.000.000;11042116;1;1;1
J. van den Burg B.V.;Vennestraat 11 / 2161 LE LISSE / NL;+31 252212428;#;#;455.214.420.000.000;5.225.017.130.000.000;10063203;1;1;1
JF Totaaltechniek;Erfgooiersstraat 233 / 1222 AK HILVERSUM / NL;+31 6-81349609;info@jftotaaltechniek.nl;www.jftotaaltechniek.nl;518.449.990.000.000;5.224.156.970.000.000;300051434;1;1;1
JR Techniek;Utrechtsestraatweg 17a / 3481 LA HARMELEN / NL;+31 (348) 443401;info@jrtechniek.nl;www.jrtechniek.nl;498.583.510.000.000;5.208.887.700.000.000;300042254;1;;
Jef Wouters Installaties;Brede-Hoolstraat 2 / 6274 NG REIJMERSTOK / NL;+31 434574078-4574078;#;www.jefwoutersinstallaties.nl;583.414.390.000.000;5.080.119.580.000.000;300044846;1;1;1
Jenniskens Techniek Rijkevoort;Kampweg 5 / 5447 NK RYKEVOORT / NL;+31 485372736;info@jenniskenstechniek.nl;www.jenniskenstechniek.nl;588.469.550.000.000;5.165.408.870.000.000;300043909;1;1;
Joost Beers Installatietechniek;Lorentzstraat 6A / 1821 BR ALKMAAR / NL;#;#;#;477.056.400.000.000;5.262.708.100.000.000;11134739;1;1;1
Kaandorp-Wijnker BV;Charlottaring 2 / 1761 AX ANNA PAULOWNA / NL;+31 223521500;info@kaandorp-wijnker.nl;https://kaandorp-wijnker.nl;480.839.740.000.000;5.286.140.620.000.000;300051931;1;1;1
Kevin Hoes;Jan Pieterzondervanweg 9 / 2031 AB HAARLEM / NL;+31 6 2905 1018;info@kevinhoes.nl;www.kevinhoes.nl;460.899.340.000.000;5.232.898.990.000.000;300051414;1;1;1
Kiekebos Klimaat & Duurzaam;Westerstouwe 31 / 7951 KH STAPHORST / NL;+31 522-246783;info@kiekebosbakker.nl;www.kiekebos.nl;618.290.580.000.000;5.268.191.600.000.000;300043373;1;1;1
Klaver Klimaattechniek B.V.;Braken 83 / 1713 GC OBDAM / NL;+31 226451256;info@klaverklimaattechniek.nl;www.klaverklimaattechniek.nl;489.388.940.000.000;5.266.839.820.000.000;10063147;1;1;1
Kloeze Installatietechniek;Hoofdstraat 109 / 9501 CR STADSKANAAL / NL;+31 599618886;info@kloeze.nl;www.kloeze.nl;696.163.180.000.000;5.298.158.830.000.000;11139277;1;1;1
Kruisselbrink Installaties;Leeghwaterweg 7 / 7102 JJ WINTERSWYK / NL;+31 543564478;info@kruisselbrinkinstallaties.nl;www.kruisselbrinkinstallaties.nl;671.388.580.000.000;5.195.767.300.000.000;11044313;1;1;1
LDG Installatietechniek BV;Nijverheidsweg 16 / 1442 LD PURMEREND / NL;+31 299654321;info@ldg.nl;www.ldg.nl;497.723.070.000.000;5.251.685.230.000.000;11035674;1;1;1
Lammers-Toepoel BV;Castricummer Werf 49 / 1901 RV Castricum / NL;+31 251 65 29 24;info@lammers-toepoel.nl;www.lammers-toepoel.nl;466.393.000.000.000;5.254.016.900.000.000;300045442;1;1;1
Langeland-Borgman bv;Krimweg 34b / 7741 KJ COEVORDEN / NL;+31 524512886;info@langelandborgman.nl;www.langelandborgman.nl;672.913.690.000.000;5.266.080.180.000.000;300057677;1;1;1
Lok Installatietechniek;De Kampen 1 / 8325 DD VOLLENHOVE / NL;+31 527243547;info@lokinstallatietechniek.nl;www.lokinstallatietechniek.nl;596.817.860.000.000;5.268.063.930.000.000;300047402;1;1;1
Loodgieters- & Installatiebedrijf;De Ward 31 / 8701 MB BOLSWARD / NL;+31 515572671;info@reekersbolsward.nl;www.reekersbolsward.nl;551.213.150.000.000;5.306.571.660.000.000;11032192;1;1;1
Loodgieters- en Onderhouds-;Huigsloterdijk 325 / 2157 LP ABBENES / NL;+31 618359931;info@erikafleur.nl;www.eriklafleur.nl;458.312.850.000.000;5.221.959.310.000.000;11033487;1;1;1
Loodgietersbedrijf M. Kramer;Kweekweg 32 / 8161 PG EPE / NL;#;info@kramer-epe.nl;www.kramer-epe.nl;599.493.750.000.000;5.234.539.170.000.000;11138712;1;1;1
Loohuis Hardenberg B.V.;Kruiwiel 9 / 7773 NL HARDENBERG / NL;+31 523625060;hardenberg@loohuisgroep.nl;www.loohuisgroep.nl;659.608.970.000.000;5.257.389.540.000.000;10063348;1;1;1
Loohuis Installatie-;Pastoor Boddestraat 18 / 7666 LB FLERINGEN / NL;+31 546629629;fleringen@loohuisgroep.nl;www.loohuisgroep.nl;680.595.920.000.000;5.238.114.090.000.000;10063048;1;1;1
;Uilenbroekstraat 64 / 8111 BE HEETEN / NL;+31 572388488;heeten@loohuisgroep.nl;www.loohuisgroep.nl;628.561.340.000.000;5.233.058.020.000.000;10063080;1;1;1
Louter Installatietechniek BV;Kabelstraat 3 / 1749 DM WARMENHUIZEN / NL;+31 725093251;info@louterinstallatie.nl;www.louterinstallatie.nl;468.254.120.000.000;5.271.360.620.000.000;10063127;1;1;1
Luijten Installatietechniek B.V.;Verlengde Luijtenstraat 4 / 2941 CH LEKKERKERK / NL;+31 180661020;#;www.luijtenverwarming.nl;469.343.300.000.000;5.190.210.750.000.000;11043382;1;1;1
M&O Techniek;Eenhoornweg 7 / 1531 ME WORMER / NL;+31 756475757;info@mo-techniek.nl;www.mo-techniek.nl;479.827.140.000.000;5.249.759.590.000.000;300047114;1;1;1
Mark Geerts Installatiewerken;Winkelhaak 8 / 5111 PX Baarle-Nassau / NL;+31 135906659;#;https://www.markgeerts.nl/;494.308.000.000.000;5.144.253.000.000.000;11137725;1;1;1
Meddens en Van Ree Installaties;Melkrijder 4 / 3861 SG NYKERK / NL;+31 33 245 84 28;info@installatietechnieknijkerk.nl;www.installatietechnieknijkerk.nl;546.460.890.000.000;5.223.226.270.000.000;11137362;1;1;1
Mensonides Installatie BV;Hermesweg 7 / 8861 VN Harlingen / NL;+31 517412658;#;#;543.615.940.000.000;5.317.716.260.000.000;11045585;1;1;1
Minkels Installatie;Cypresstraat 167 / 5213 EV S HERTOGENBOSCH / NL;+31 6-20056930;info@minkelsinstallatie.nl;www.minkelsinstallatie.nl;532.706.120.000.000;5.169.497.110.000.000;300051095;1;1;
Nooter BV;Simon Stevinweg 9 / 8013 NA ZWOLLE / NL;+31 (38) 453 16 22;info@nooter.nl;www.nooter.nl;612.711.640.000.000;5.248.848.680.000.000;300047206;1;1;1
P. Jansen Installatie Techniek B.V.;Kruisakkers 4 / 4613 BV BERGEN OP ZOOM / NL;+31 164 23 65 27;#;www.pjansen.nl;427.664.190.000.000;5.150.376.690.000.000;300055919;1;1;1
P. de Vries Installatie-;Polluxweg 13 / 8938 AZ LEEUWARDEN / NL;+31 582880222;#;www.pdevries.nl;585.619.790.000.000;5.319.875.870.000.000;11028536;1;1;1
P.C. van der Horst B.V.;Oosterwerf 7 / 1911 JB UITGEEST / NL;+31 251-315650;info@pcvanderhorst.nl;https://www.pcvanderhorst.nl/;471.962.010.000.000;5.253.969.950.000.000;11040855;1;1;1
Pactum Installatietechniek;Hamburgweg 12 / 7418 ES DEVENTER / NL;+31 570624640;info@pactum.nl;www.pactum.nl;620.427.810.000.000;5.224.069.380.000.000;10063529;1;1;1
Piet Butter B.V.;Volume 6 / 1446 WJ PURMEREND / NL;+31 299365135;info@pietbutter.nl;www.pietbutter.nl;507.874.530.000.000;5.250.435.150.000.000;11137783;1;1;1
Pola Zevenaar B.V.;Hengelder 19 / 6902 PA ZEVENAAR / NL;+31 316524351;info@pola.nl;www.pola.nl;610.367.130.000.000;5.192.835.320.000.000;10063168;1;1;1
Poppe Installatietechniek;Hulsterweg 75C / 4587 LG KLOOSTERZANDE / NL;+31 114684848;#;https://poppeinstallatietechniek.nl/;402.283.700.000.000;5.136.210.460.000.000;11034060;;1;
Provato Techniek B.V.;Hongkongstraat 56 / 3047 BS ROTTERDAM / NL;+31 104152007;#;https://www.provatotechniek.nl/;440.527.380.000.000;5.194.254.960.000.000;10063432;1;;
R. Lascaris Installatie B.V.;Oosteinde 86 / 1474 ME OOSTHUIZEN / NL;+31 299403402;r.lascaris@lascarisbv.nl;www.lascarisbv.nl;501.388.820.000.000;5.258.023.460.000.000;300049749;1;1;1
RM ventilatietechniek;J. Keplerweg 8G / 2408 AC ALPHEN AAN DEN RIJN / NL;#;#;www.rmventilatietechniek.nl;464.251.640.000.000;5.212.110.380.000.000;11139675;1;1;1
Reerink bv Inst.bedrijf;Hanzeweg 1-A / 7241 CR LOCHEM / NL;+31 (573) 25 24 25;info@reerink-lochem.nl;www.reerink-lochem.nl;642.053.600.000.000;5.216.374.980.000.000;300056979;1;1;1
Rijkhoff Installatietechniek;Van Roozendaalstraat 3 / 1715 EJ SPANBROEK / NL;+31 226351426;info@rijkhoff.nl;www.rijkhoff.nl;494.194.150.000.000;5.270.064.150.000.000;300049361;1;1;1
Rob Balk B.V. Loodgietersbedrijf;Trechtweg 10A / 3945 PL COTHEN / NL;+31 343563089;#;https://www.robbalk.nl/;529.582.210.000.000;5.198.788.730.000.000;11041738;1;1;1
Romijnders Service B.V.;Vijverlaan 9 / 6602 CX WYCHEN / NL;+31 246488222;info@romijnders.nl;www.romijnders.nl;574.190.540.000.000;5.181.234.840.000.000;11006517;1;1;1
Roseboom Installatietechniek;Faradaystraat 12 / 6718 XT EDE / NL;+31 318527725;info@roseboom.nl;www.roseboom.nl;560.657.340.000.000;5.203.248.200.000.000;11137920;1;1;1
Rutgers Installatiebureau;Zuiderdracht 1A / 1696 AK OOSTERBLOKKER / NL;+31 229261668;info@rutgers-bv.nl;www.rutgers-bv.nl;510.819.040.000.000;5.266.144.920.000.000;11045572;1;1;1
S. Smit Duurzame;Beltstraat 21-25 / 1777 HA HIPPOLYTUSHOEF / NL;+31 227591316;#;www.ssmit.nl;495.691.870.000.000;5.290.531.620.000.000;11044269;1;1;1
SB Installatietechniek;De Meer 15C / 8321 MT Urk / NL;+31 527-690042;#;www.sbinstallatietechniek.nl;563.527.000.000.000;5.265.435.000.000.000;11142375;1;1;1
Schimmel Techniek;Anthonie Fokkerstraat 23 / 3772 MP BARNEVELD / NL;+31 342729239;#;www.schimmel-tdi.nl;560.192.970.000.000;5.213.573.330.000.000;300049950;1;1;1
Schouten Hazerswoude B.V.;Belgiëlaan 1a / 2391 PH HAZERSWOUDE DORP / NL;+31 172589124;#;www.schoutenhazerswoude.nl;458.807.070.000.000;5.209.658.580.000.000;11031028;1;1;1
Schreuder Installatietechniek BV;Curieweg 7 / 8013 RA ZWOLLE / NL;+31 384656474;info@schreuderbv.nl;www.schreuderbv.nl;612.999.300.000.000;5.249.845.590.000.000;300050408;1;1;1
Schulte & Lestraden B.V.;Heereweg 23 / 2161 AC LISSE / NL;+31 252466466;#;#;456.089.950.000.000;5.226.926.120.000.000;10063011;1;1;1
Schuttevaar Installatietechniek;De Matestraat 22 / 7447 BB HELLENDOORN / NL;+31 548546084;info@schuttevaar-installatietechniek.nl;www.schuttevaar-installatietechniek.nl;645.426.550.000.000;5.239.247.410.000.000;11136976;1;1;1
Siebert Installatie-;Katoenstraat 24 / 8281 JZ GENEMUIDEN / NL;+31 (38) 385 57 29;info@siebert-install.nl;www.siebert-install.nl;606.439.270.000.000;5.261.502.980.000.000;300047010;1;1;1
Sikma Installatiebedrijf B.V.;Edisonstraat 15 / 8606 JH SNEEK / NL;+31 51541 44 18;#;Www.sikma.nl;569.086.250.000.000;5.302.011.100.000.000;300047326;1;1;1
Slor Installaties;Koningsweg 1 / 9731 AM Groningen / NL;+31 6-24679042;info@slorinstallaties.nl;www.slorinstallaties.nl;660.188.000.000.000;5.322.562.000.000.000;300067862;1;1;1
Smit installatie en daktechniek;Achtseweg Noord 12A / 5651 GG EINDHOVEN / NL;+31 407114300;#;https://smit-idt.nl/;541.688.020.000.000;5.147.390.590.000.000;300047054;;1;
Sommers Installatietechniek;Stevensbeekseweg 1 / 5845 ER ST ANTHONIS / NL;+31 485382344;#;#;589.702.050.000.000;5.162.205.530.000.000;11025802;1;1;1
Stienezen Wanders bv;Nijverheidsweg 6 / 7031 BV WEHL / NL;+31 314684051;info@stienezenwanders.nl;www.stienezenwanders.nl;621.756.640.000.000;5.195.822.300.000.000;300047948;1;1;
TIS - Stiens;Seerob 29 / 9051 VA STIENS / NL;+31 852084160;info@tis-stiens.nl;www.tis-stiens.nl;574.721.830.000.000;5.326.768.170.000.000;11035490;1;1;1
Techn. Install. Buro;Brugstraat 1 / 7687 BD DAARLERVEEN / NL;+31 546643000;info@huisman-groep.nl;www.huisman-groep.nl;657.860.350.000.000;5.244.271.020.000.000;10063359;1;1;1
Topma Installatiebedrijf;Eindhovenstraat 4 / 1821 BV ALKMAAR / NL;+31 (72) 520 22 47;mail@topma.nl;#;477.115.190.000.000;5.262.447.110.000.000;300042543;;1;
Totaal-techniek Vrielink;Weitemansweg 61 / 7608 RG ALMELO / NL;+31 651662029;info@totaal-techniek.nl;www.totaal-techniek.nl;668.797.960.000.000;5.238.868.050.000.000;300057520;1;1;1
Totec Installatietechniek;De Meer 11 / 8321 LX URK / NL;+31 527 748444;info@totec.nl;www.totec.nl;563.551.460.000.000;5.265.517.410.000.000;300042771;1;1;1
United installaties;Productieweg 5 / 8061 RK Hasselt / NL;+31 85620400-6204200;contact@unitedinstallaties.nl;www.unitedinstallaties.nl/;608.825.000.000.000;5.258.582.000.000.000;300074545;;1;
VSN Ventilatie Service Nederland;Transistorstraat 58D / 1322 CG ALMERE / NL;+31 885360536;info@ventilatieservicenederland.nl;www.ventilatieservicenederland.nl;517.734.620.000.000;5.234.599.460.000.000;11036037;1;1;1
Van Alphen & Roest B.V.;Thijssenweg 20 / 4927 PC Hooge Zwaluwe / NL;+31 (76) 593 12 53;#;#;474.480.000.000.000;5.166.903.000.000.000;300042874;1;1;1
Van Dijk Made BV;Brieltjenspolder 3 / 4921 PK MADE / NL;+31 162682671;#;https://www.vandijkmade.nl/;481.032.330.000.000;5.167.384.260.000.000;10063501;1;1;1
Van Dorp Installaties Lelystad;Noordersluisweg 2 / 8243 PR LELYSTAD / NL;+31 (320) 222599;infolelystad@vandorp.eu;www.vandorp.eu;544.261.270.000.000;5.250.537.130.000.000;300054651;1;1;1
Van Gemert;Oploseweg 12b / 5825 HN OVERLOON / NL;+31 478507171;#;#;593.637.620.000.000;5.157.087.100.000.000;10063382;1;1;1
Van Gerven Installatie B.V.;Fransebaan 9 / 5091 JN Oost West En Middelbeers / NL;+31 6-22545877;info@vangerveninstallatie.nl;www.vangerveninstallatie.nl;528.127.500.000.000;5.149.454.500.000.000;300048407;1;1;1
Van Heugten Installatie;Dieze 8 / 5422 VS GEMERT / NL;+31 492365632;#;#;570.754.990.000.000;5.156.512.730.000.000;10063298;1;1;1
Van Linde Installatiebedrijf;Van Harinxmaweg 13 / 9244 CJ BEETSTERZWAAG / NL;+31 512 382632;info@vanlindeinstallatie.nl;www.vanlindeinstallatie.nl;609.478.120.000.000;5.306.169.740.000.000;300050063;1;1;1
Van Riesen Installatietechniek BV;Ceintuurbaan Noord 123 / 9301 NT RODEN / NL;+31 50 727 1020;info@vanriesen-installatietechniek.nl;www.vanriesen-installatietechniek.nl;643.567.790.000.000;5.314.513.880.000.000;300049783;1;1;1
Van Rijn Installatie B.V.;Noordpolderstraat 2 / 4571 LR Axel / NL;+31 115-561717;info@vanrijninstallatie.nl;www.vanrijninstallatie.nl;391.058.000.000.000;5.127.151.000.000.000;300059899;1;1;
Van Seggeren Installatie-;Edisonstraat 3 / 9285 WE BUITENPOST / NL;+31 511444847;info@vstechniek.nl;www.vstechniek.nl;606.803.960.000.000;5.326.072.140.000.000;10063397;1;1;1
Van Veldhuisen Techniek;Breedsendijk 2A / 4401 BD YERSEKE / NL;+31 113571914;#;www.vanveldhuisentechniek.nl;403.902.240.000.000;5.150.400.720.000.000;11046271;;1;
Van Velthoven & Kruijssen BV;Sonman 19 / 5066 GJ MOERGESTEL / NL;+31 135131284;#;#;517.580.770.000.000;5.153.741.540.000.000;11027689;1;1;
Van Vilsteren Inst.techniek BV;Boerendanserdijk 41 / 8024 AE ZWOLLE / NL;+31 (38) 4216502;info@vilsteren.nl;www.vilsteren.nl;612.074.570.000.000;5.251.991.110.000.000;300049961;1;1;1
Van Wijngaarden BV;Pr. Marijkestraat 10 / 2404 BC ALPHEN AAN DEN RYN / NL;+31 172493544;#;www.wijngaarden-bv.nl;465.499.070.000.000;5.213.539.150.000.000;300047418;1;1;
Van de Ven - Hollanders;Kapelstraat 19 / 5741 CB BEEK EN DONK / NL;+31 492464343;#;#;562.789.430.000.000;5.154.046.500.000.000;11046332;1;1;1
Van den Berg Installateurs BV;Faradaystraat 2 / 6718 XT EDE / NL;+31 318614776;#;#;565.047.040.000.000;5.202.991.710.000.000;10063423;1;1;
Van den Buijs Installaties;Rithmeesterpark 15 / 4838 GZ BREDA / NL;+31 76 597 22 29;#;www.vandenbuijs.nl;473.241.690.000.000;5.156.909.390.000.000;300044207;1;1;
Van den Hoff Installatiebedrijf BV;Van Kanstraat 3 / 5652 GA EINDHOVEN / NL;+31 402517626;#;#;544.693.160.000.000;5.143.959.360.000.000;11135766;1;1;
Van der Velden Installaties;Ambachtsweg 12 / 5683 DE BEST / NL;+31 499-490092;info@vanderveldeninstallaties.nl;https://vanderveldeninstallaties.nl/;540.344.520.000.000;5.150.157.770.000.000;300044097;;1;
Van der Weerd Installatietechniek;James Wattstraat 2 / 8801 PK FRANEKER / NL;+31 517 39 32 31;info@vanderweerd.net;www.vanderweerd.net;552.753.660.000.000;5.318.286.460.000.000;300045771;1;1;1
Velgsib Installatietechniek;Steenhouwer 6 / 9502 ET STADSKANAAL / NL;+31 599612178;info@velgsib.nl;www.velgsib.nl;697.548.820.000.000;5.297.752.890.000.000;300056275;1;1;1
Vennegoor Installatie;Gunnerstraat 19 / 7595 KD WEERSELO / NL;+31 541661889;info@vennegoorweerselo.nl;www.vennegoorweerselo.nl;685.399.690.000.000;5.234.842.910.000.000;300053873;1;1;1
VentilatieNL;Zuideinde 47 / 1121 CK LANDSMEER / NL;+31 857920792;service@ventilatienl.nl;www.ventilatienl.nl;491.043.660.000.000;5.242.445.580.000.000;11046369;1;1;1
Ventilatieservice Noord Nederland;Uiterburen 60 / 9636 EG ZUIDBROEK / NL;+31 598-453633;#;www.vsnn.nl;687.621.180.000.000;5.317.537.630.000.000;11026912;1;1;1
Verhees & Van Dijk;Industrieweg 7 / 5753 PB DEURNE / NL;+31 493341634;#;https://www.verheesenvandijk.nl/;579.827.890.000.000;5.144.859.200.000.000;11138126;1;1;
Vroling B.V.;Driebanweg 10 / 1607 NL HEM / NL;+31 228541451;#;#;518.830.430.000.000;5.265.654.850.000.000;11044359;1;1;1
WSI Techniek;Batterij 3 / 7141 JL GROENLO / NL;+31 544375989;info@wsi-techniek.nl;www.wsi-techniek.nl;662.621.800.000.000;5.205.947.100.000.000;10063224;1;1;1
Wassink Installatie;Fabriekstraat 39-03 / 7005 AP DOETINCHEM / NL;+31 314345868;info@wassink.nl;www.wassink.nl;629.319.900.000.000;5.195.348.470.000.000;11038831;1;1;1
;Snelliusstraat 11 / 7102 ED WINTERSWYK / NL;+31 543517925;info@wassink.nl;www.wassink.nl;670.906.310.000.000;5.195.964.800.000.000;10063042;1;1;1
Wesley Keeris Installatietechniek;De Hooge Akker 15 / 5661 NG GELDROP / NL;+31 402855443;info@wkinstallatie.nl;#;553.842.300.000.000;5.142.782.540.000.000;300043323;1;1;
Wilms Den Helder bv;Ravelijncenter 39 / 1785 LX DEN HELDER / NL;+31 223630900;info@wilms.nl;www.wilms.nl;477.576.890.000.000;5.294.314.150.000.000;10063206;1;1;1
Winters Installaties BV;Simon Vestdijkwei 16 / 8914 AX LEEUWARDEN / NL;+31 (58) 215 40 55;info@winters-installaties.nl;www.winters-installaties.nl;576.157.690.000.000;5.320.218.640.000.000;300054762;1;1;1
Woolderink Technische;Bedrijvenstraat 11 / 7641 AM WIERDEN / NL;+31 546571680;info@woolderink.nl;www.woolderink.nl;658.359.690.000.000;5.236.190.840.000.000;10063079;1;1;
